{
    "links": {
        "self": "http://www.neowsapp.com/rest/v1/neo/3696404?api_key=iIulBulltgU6a56xZRHN4H3l9WmuAYTsLGpBGhQ2"
    },
    "id": "3696404",
    "neo_reference_id": "3696404",
    "name": "(2014 WG6)",
    "designation": "2014 WG6",
    "nasa_jpl_url": "http://ssd.jpl.nasa.gov/sbdb.cgi?sstr=3696404",
    "absolute_magnitude_h": 25.2,
    "estimated_diameter": {
        "kilometers": {
            "estimated_diameter_min": 0.0242412481,
            "estimated_diameter_max": 0.0542050786
        },
        "meters": {
            "estimated_diameter_min": 24.2412481101,
            "estimated_diameter_max": 54.2050786336
        },
        "miles": {
            "estimated_diameter_min": 0.0150628086,
            "estimated_diameter_max": 0.0336814639
        },
        "feet": {
            "estimated_diameter_min": 79.5316564495,
            "estimated_diameter_max": 177.8381901842
        }
    },
    "is_potentially_hazardous_asteroid": false,
    "close_approach_data": [
        {
            "close_approach_date": "2014-12-05",
            "close_approach_date_full": "2014-Dec-05 19:12",
            "epoch_date_close_approach": 1417806720000,
            "relative_velocity": {
                "kilometers_per_second": "6.2086771674",
                "kilometers_per_hour": "22351.2378024603",
                "miles_per_hour": "13888.1899556454"
            },
            "miss_distance": {
                "astronomical": "0.1204811884",
                "lunar": "46.8671822876",
                "kilometers": "18023729.159708708",
                "miles": "11199425.9755598504"
            },
            "orbiting_body": "Earth"
        }
    ],
    "orbital_data": {
        "orbit_id": "7",
        "orbit_determination_date": "2017-04-06 08:37:27",
        "first_observation_date": "2014-11-17",
        "last_observation_date": "2014-12-12",
        "data_arc_in_days": 25,
        "observations_used": 21,
        "orbit_uncertainty": "8",
        "minimum_orbit_intersection": ".120065",
        "jupiter_tisserand_invariant": "4.871",
        "epoch_osculation": "2456980.5",
        "eccentricity": ".2139436647668484",
        "semi_major_axis": "1.334717882654054",
        "inclination": "10.74106386412814",
        "ascending_node_longitude": "54.83445238987836",
        "orbital_period": "563.2259363486711",
        "perihelion_distance": "1.049163447409197",
        "perihelion_argument": "56.02134848094346",
        "aphelion_distance": "1.62027231789891",
        "perihelion_time": "2457035.447478479637",
        "mean_anomaly": "324.8789393810451",
        "mean_motion": ".6391751103186735",
        "equinox": "J2000",
        "orbit_class": {
            "orbit_class_type": "AMO",
            "orbit_class_description": "Near-Earth asteroid orbits similar to that of 1221 Amor",
            "orbit_class_range": "1.017 AU < q (perihelion) < 1.3 AU"
        }
    },
    "is_sentry_object": false
}